{
  "type": "FeatureCollection",
  "features": [
    {
      "type": "Feature",
      "properties": {
        "norad_id": 49809,
        "name": "GSAT0223 (GALILEO 27)",
        "group": "gnss",
        "lat": -8.76178844952267,
        "lon": -19.227521489749602,
        "alt_km": 23224.472791241493,
        "timestamp": "2025-12-21T05:44:51.830751+00:00",
        "meta_object_name": "GSAT0223 (GALILEO 27)",
        "meta_object_id": "2021-116A",
        "meta_epoch": "2025-12-19T11:56:47.637312",
        "meta_mean_motion": 1.7047609,
        "meta_eccentricity": 0.00044147,
        "meta_inclination": 57.2179,
        "meta_ra_of_asc_node": 346.5305,
        "meta_arg_of_pericenter": 254.6091,
        "meta_mean_anomaly": 105.9777,
        "meta_ephemeris_type": 0,
        "meta_classification_type": "U",
        "meta_norad_cat_id": 49809,
        "meta_element_set_no": 999,
        "meta_rev_at_epoch": 2512,
        "meta_bstar": 0,
        "meta_mean_motion_dot": -7.2e-07,
        "meta_mean_motion_ddot": 0,
        "tle_line1": "1 49809U 21116A   25353.49777358 -.00000072  00000+0  00000+0 0  9997",
        "tle_line2": "2 49809  57.2179 346.5305 0004414 254.6091 105.9777  1.70476090 25129"
      },
      "geometry": {
        "type": "Point",
        "coordinates": [
          -19.227521489749602,
          -8.76178844952267
        ]
      }
    },
    {
      "type": "Feature",
      "properties": {
        "norad_id": 49810,
        "name": "GSAT0224 (GALILEO 28)",
        "group": "gnss",
        "lat": 55.268864886493226,
        "lon": 98.08693580415331,
        "alt_km": 23225.89192608487,
        "timestamp": "2025-12-21T05:44:51.830765+00:00",
        "meta_object_name": "GSAT0224 (GALILEO 28)",
        "meta_object_id": "2021-116B",
        "meta_epoch": "2025-12-20T04:43:34.979232",
        "meta_mean_motion": 1.70476091,
        "meta_eccentricity": 0.0003747,
        "meta_inclination": 57.2188,
        "meta_ra_of_asc_node": 346.5104,
        "meta_arg_of_pericenter": 259.7047,
        "meta_mean_anomaly": 282.5653,
        "meta_ephemeris_type": 0,
        "meta_classification_type": "U",
        "meta_norad_cat_id": 49810,
        "meta_element_set_no": 999,
        "meta_rev_at_epoch": 2515,
        "meta_bstar": 0,
        "meta_mean_motion_dot": -7e-07,
        "meta_mean_motion_ddot": 0,
        "tle_line1": "1 49810U 21116B   25354.19693263 -.00000070  00000+0  00000+0 0  9997",
        "tle_line2": "2 49810  57.2188 346.5104 0003747 259.7047 282.5653  1.70476091 25152"
      },
      "geometry": {
        "type": "Point",
        "coordinates": [
          98.08693580415331,
          55.268864886493226
        ]
      }
    },
    {
      "type": "Feature",
      "properties": {
        "norad_id": 52984,
        "name": "COSMOS 2557 (706K)",
        "group": "gnss",
        "lat": -13.537135283858646,
        "lon": -45.88835658204556,
        "alt_km": 19118.40471598526,
        "timestamp": "2025-12-21T05:44:51.830779+00:00",
        "meta_object_name": "COSMOS 2557 (706K)",
        "meta_object_id": "2022-075A",
        "meta_epoch": "2025-12-20T07:41:36.547296",
        "meta_mean_motion": 2.13102072,
        "meta_eccentricity": 0.0013536,
        "meta_inclination": 64.4056,
        "meta_ra_of_asc_node": 320.785,
        "meta_arg_of_pericenter": 278.2438,
        "meta_mean_anomaly": 81.5952,
        "meta_ephemeris_type": 0,
        "meta_classification_type": "U",
        "meta_norad_cat_id": 52984,
        "meta_element_set_no": 999,
        "meta_rev_at_epoch": 2690,
        "meta_bstar": 0,
        "meta_mean_motion_dot": -5.4e-07,
        "meta_mean_motion_ddot": 0,
        "tle_line1": "1 52984U 22075A   25354.32056189 -.00000054  00000+0  00000+0 0  9995",
        "tle_line2": "2 52984  64.4056 320.7850 0013536 278.2438  81.5952  2.13102072 26907"
      },
      "geometry": {
        "type": "Point",
        "coordinates": [
          -45.88835658204556,
          -13.537135283858646
        ]
      }
    },
    {
      "type": "Feature",
      "properties": {
        "norad_id": 54031,
        "name": "COSMOS 2559 (707K)",
        "group": "gnss",
        "lat": 48.70231863633616,
        "lon": 107.7291777498367,
        "alt_km": 19113.435868349265,
        "timestamp": "2025-12-21T05:44:51.830790+00:00",
        "meta_object_name": "COSMOS 2559 (707K)",
        "meta_object_id": "2022-130A",
        "meta_epoch": "2025-12-20T03:21:15.154272",
        "meta_mean_motion": 2.13101371,
        "meta_eccentricity": 0.00115862,
        "meta_inclination": 64.3781,
        "meta_ra_of_asc_node": 320.8808,
        "meta_arg_of_pericenter": 191.9229,
        "meta_mean_anomaly": 168.0425,
        "meta_ephemeris_type": 0,
        "meta_classification_type": "U",
        "meta_norad_cat_id": 54031,
        "meta_element_set_no": 999,
        "meta_rev_at_epoch": 2487,
        "meta_bstar": 0,
        "meta_mean_motion_dot": -5.6e-07,
        "meta_mean_motion_ddot": 0,
        "tle_line1": "1 54031U 22130A   25354.13975873 -.00000056  00000+0  00000+0 0  9993",
        "tle_line2": "2 54031  64.3781 320.8808 0011586 191.9229 168.0425  2.13101371 24873"
      },
      "geometry": {
        "type": "Point",
        "coordinates": [
          107.7291777498367,
          48.70231863633616
        ]
      }
    },
    {
      "type": "Feature",
      "properties": {
        "norad_id": 54377,
        "name": "COSMOS 2564 (761)",
        "group": "gnss",
        "lat": -53.867360644179215,
        "lon": 58.945021897587544,
        "alt_km": 19119.023098230442,
        "timestamp": "2025-12-21T05:44:51.830801+00:00",
        "meta_object_name": "COSMOS 2564 (761)",
        "meta_object_id": "2022-161A",
        "meta_epoch": "2025-12-20T10:52:36.393600",
        "meta_mean_motion": 2.13102061,
        "meta_eccentricity": 0.00085537,
        "meta_inclination": 64.7386,
        "meta_ra_of_asc_node": 198.6426,
        "meta_arg_of_pericenter": 203.8695,
        "meta_mean_anomaly": 156.167,
        "meta_ephemeris_type": 0,
        "meta_classification_type": "U",
        "meta_norad_cat_id": 54377,
        "meta_element_set_no": 999,
        "meta_rev_at_epoch": 2382,
        "meta_bstar": 0,
        "meta_mean_motion_dot": 1.01e-06,
        "meta_mean_motion_ddot": 0,
        "tle_line1": "1 54377U 22161A   25354.45319900  .00000101  00000+0  00000+0 0  9998",
        "tle_line2": "2 54377  64.7386 198.6426 0008553 203.8695 156.1670  2.13102061 23829"
      },
      "geometry": {
        "type": "Point",
        "coordinates": [
          58.945021897587544,
          -53.867360644179215
        ]
      }
    },
    {
      "type": "Feature",
      "properties": {
        "norad_id": 55268,
        "name": "GPS BIII-6  (PRN 28)",
        "group": "gnss",
        "lat": -16.492653197170092,
        "lon": -12.570589132758379,
        "alt_km": 20194.629709113684,
        "timestamp": "2025-12-21T05:44:51.830812+00:00",
        "meta_object_name": "GPS BIII-6  (PRN 28)",
        "meta_object_id": "2023-009A",
        "meta_epoch": "2025-12-17T11:51:56.668896",
        "meta_mean_motion": 2.00555417,
        "meta_eccentricity": 0.00037978,
        "meta_inclination": 55.1064,
        "meta_ra_of_asc_node": 155.6587,
        "meta_arg_of_pericenter": 358.2196,
        "meta_mean_anomaly": 17.9493,
        "meta_ephemeris_type": 0,
        "meta_classification_type": "U",
        "meta_norad_cat_id": 55268,
        "meta_element_set_no": 999,
        "meta_rev_at_epoch": 2160,
        "meta_bstar": 0,
        "meta_mean_motion_dot": 7.7e-07,
        "meta_mean_motion_ddot": 0,
        "tle_line1": "1 55268U 23009A   25351.49440589  .00000077  00000+0  00000+0 0  9991",
        "tle_line2": "2 55268  55.1064 155.6587 0003797 358.2196  17.9493  2.00555417 21607"
      },
      "geometry": {
        "type": "Point",
        "coordinates": [
          -12.570589132758379,
          -16.492653197170092
        ]
      }
    },
    {
      "type": "Feature",
      "properties": {
        "norad_id": 56564,
        "name": "BEIDOU-3 G4 (C62)",
        "group": "gnss",
        "lat": 0.43218323935579517,
        "lon": -23.66858684757966,
        "alt_km": 35797.18531214072,
        "timestamp": "2025-12-21T05:44:51.830824+00:00",
        "meta_object_name": "BEIDOU-3 G4 (C62)",
        "meta_object_id": "2023-066A",
        "meta_epoch": "2025-12-20T20:50:23.299872",
        "meta_mean_motion": 1.00271472,
        "meta_eccentricity": 0.00027048,
        "meta_inclination": 0.798,
        "meta_ra_of_asc_node": 302.6735,
        "meta_arg_of_pericenter": 226.49,
        "meta_mean_anomaly": 33.1906,
        "meta_ephemeris_type": 0,
        "meta_classification_type": "U",
        "meta_norad_cat_id": 56564,
        "meta_element_set_no": 999,
        "meta_rev_at_epoch": 960,
        "meta_bstar": 0,
        "meta_mean_motion_dot": -8.7e-07,
        "meta_mean_motion_ddot": 0,
        "tle_line1": "1 56564U 23066A   25354.86832523 -.00000087  00000+0  00000+0 0  9993",
        "tle_line2": "2 56564   0.7980 302.6735 0002704 226.4900  33.1906  1.00271472  9605"
      },
      "geometry": {
        "type": "Point",
        "coordinates": [
          -23.66858684757966,
          0.43218323935579517
        ]
      }
    }
  ]
}